[{"OBJECT_NAME":"JILIN-1","OBJECT_ID":"2015-057D","EPOCH":"2026-03-09T23:20:41.450208","MEAN_MOTION":14.7799363,"ECCENTRICITY":0.00159161,"INCLINATION":97.6518,"RA_OF_ASC_NODE":73.2783,"ARG_OF_PERICENTER":222.7613,"MEAN_ANOMALY":137.2362,"EPHEMERIS_TYPE":0,"CLASSIFICATION_TYPE":"U","NORAD_CAT_ID":40961,"ELEMENT_SET_NO":999,"REV_AT_EPOCH":56095,"BSTAR":0.00014277196,"MEAN_MOTION_DOT":9.83e-6,"MEAN_MOTION_DDOT":0},{"OBJECT_NAME":"THEOS-2 (T2V)","OBJECT_ID":"2023-155A","EPOCH":"2026-03-09T23:23:00.745152","MEAN_MOTION":14.81769696,"ECCENTRICITY":0.00013176,"INCLINATION":97.896,"RA_OF_ASC_NODE":141.418,"ARG_OF_PERICENTER":94.2148,"MEAN_ANOMALY":265.9216,"EPHEMERIS_TYPE":0,"CLASSIFICATION_TYPE":"U","NORAD_CAT_ID":58016,"ELEMENT_SET_NO":999,"REV_AT_EPOCH":13073,"BSTAR":0.00016747665,"MEAN_MOTION_DOT":1.269e-5,"MEAN_MOTION_DDOT":0}]
